IRIDIUM 112             
1 41925U 17003J   25166.15113684  .00000116  00000+0  34351-4 0  9998
2 41925  86.3973 241.6187 0002255  97.6604 262.4848 14.34218433440694
IRIDIUM 111             
1 41926U 17003K   25165.92914630  .00000011  00000+0 -29660-5 0  9996
2 41926  86.3975 241.7739 0002332  92.4165 267.7297 14.34217854440616
IRIDIUM 113             
1 42803U 17039A   25165.76957444  .00000051  00000+0  11249-4 0  9998
2 42803  86.3972 115.7695 0002308  91.2425 268.9035 14.34217822418521
IRIDIUM 123             
1 42804U 17039B   25165.95059053  .00000032  00000+0  42575-5 0  9995
2 42804  86.3982 147.1520 0002637  83.3836 276.7660 14.34217604417317
IRIDIUM 120             
1 42805U 17039C   25166.11207301  .00000271  00000+0  89675-4 0  9992
2 42805  86.3958 115.4562 0002372  76.7270 283.4190 14.34219197418569
IRIDIUM 115             
1 42806U 17039D   25165.59579649  .00000328  00000+0  91536-4 0  9993
2 42806  86.4496 115.7504 0002979  78.5356 281.6180 14.43282522421245
IRIDIUM 118             
1 42807U 17039E   25165.70322649  .00000234  00000+0  76586-4 0  9997
2 42807  86.3979 147.2549 0002265  90.3298 269.8158 14.34217467417272
IRIDIUM 117             
1 42808U 17039F   25166.21063476  .00000236  00000+0  77106-4 0  9996
2 42808  86.3979 147.0042 0002621  87.2756 272.8740 14.34217291417387
